{"type":"FeatureCollection","features":[{"type":"Feature","geometry":{"type":"Polygon","coordinates":[[[-79.45794,43.8444],[-79.47775,43.92428],[-79.71152,43.87577],[-79.63931,43.74985],[-79.42008,43.798],[-79.42862,43.83475],[-79.45415,43.82938],[-79.45794,43.8444]]]},"properties":{"CSDUID":"3519028","DGUID":"2021A00053519028","CSDNAME":"Vaughan","PRUID":"35"}},{"type":"Feature","geometry":{"type":"Polygon","coordinates":[[[-79.21597,43.95812],[-79.21742,43.96252],[-79.27822,43.95076],[-79.38952,43.9238],[-79.37067,43.84713],[-79.42872,43.83515],[-79.42008,43.798],[-79.17025,43.85547],[-79.21597,43.95812]]]},"properties":{"CSDUID":"3519036","DGUID":"2021A00053519036","CSDNAME":"Markham","PRUID":"35"}},{"type":"Feature","geometry":{"type":"Polygon","coordinates":[[[-79.39284,43.84198],[-79.37067,43.84713],[-79.38995,43.92572],[-79.39267,43.97781],[-79.48555,43.95749],[-79.45415,43.82938],[-79.39284,43.84198]]]},"properties":{"CSDUID":"3519038","DGUID":"2021A00053519038","CSDNAME":"Richmond Hill","PRUID":"35"}},{"type":"Feature","geometry":{"type":"Polygon","coordinates":[[[-79.48536,43.95755],[-79.39267,43.97781],[-79.41143,44.03552],[-79.49949,44.01648],[-79.48536,43.95755]]]},"properties":{"CSDUID":"3519046","DGUID":"2021A00053519046","CSDNAME":"Aurora","PRUID":"35"}},{"type":"Feature","geometry":{"type":"MultiPolygon","coordinates":[[[[-79.44282,43.63379],[-79.44298,43.63381],[-79.44285,43.63375],[-79.44282,43.63379]]],[[[-79.45767,43.63628],[-79.45801,43.63623],[-79.4576,43.63624],[-79.45767,43.63628]]],[[[-79.38428,43.61915],[-79.38429,43.61933],[-79.38435,43.61938],[-79.38428,43.61915]]],[[[-79.23854,43.70375],[-79.23853,43.70387],[-79.23876,43.70379],[-79.23854,43.70375]],[[-79.44214,43.63349],[-79.44259,43.63365],[-79.44199,43.63353],[-79.44214,43.63349]]],[[[-79.38698,43.61466],[-79.38696,43.61483],[-79.38709,43.61477],[-79.38698,43.61466]]],[[[-79.40453,43.63163],[-79.40499,43.63174],[-79.40502,43.63169],[-79.40453,43.63163]]],[[[-79.37113,43.61652],[-79.3716,43.61629],[-79.37124,43.61641],[-79.37113,43.61652]]],[[[-79.28853,43.66832],[-79.28806,43.66856],[-79.28857,43.66838],[-79.28853,43.66832]]],[[[-79.29065,43.66767],[-79.29019,43.66793],[-79.29067,43.66774],[-79.29065,43.66767]]],[[[-79.28586,43.66891],[-79.28552,43.66909],[-79.28586,43.66902],[-79.28586,43.66891]]],[[[-79.342,43.61948],[-79.34188,43.61956],[-79.34221,43.6196],[-79.342,43.61948]],[[-79.44826,43.63568],[-79.44995,43.63593],[-79.4481,43.63575],[-79.44826,43.63568]],[[-79.44023,43.63268],[-79.44173,43.63328],[-79.44003,43.63269],[-79.44023,43.63268]]],[[[-79.45961,43.63603],[-79.45804,43.63622],[-79.4599,43.63612],[-79.45961,43.63603]]],[[[-79.38661,43.61424],[-79.3865,43.61437],[-79.38692,43.61458],[-79.38661,43.61424]]],[[[-79.47487,43.62347],[-79.47452,43.62351],[-79.47428,43.62376],[-79.47487,43.62347]]],[[[-79.47614,43.62431],[-79.47641,43.62435],[-79.47593,43.62403],[-79.47614,43.62431]]],[[[-79.47626,43.62453],[-79.47621,43.625],[-79.4764,43.62457],[-79.47626,43.62453]]],[[[-79.43822,43.63182],[-79.43977,43.63245],[-79.43797,43.63153],[-79.43822,43.63182]]],[[[-79.47594,43.62559],[-79.47614,43.6258],[-79.4761,43.62531],[-79.47594,43.62559]]],[[[-79.33501,43.62687],[-79.3353,43.6267],[-79.33483,43.62665],[-79.33501,43.62687]]],[[[-79.29173,43.66734],[-79.29114,43.66768],[-79.2918,43.66746],[-79.29173,43.66734]]],[[[-79.4703,43.6319],[-79.4673,43.63338],[-79.47049,43.63195],[-79.4703,43.6319]]],[[[-79.45522,43.63635],[-79.45728,43.63638],[-79.45461,43.63631],[-79.45522,43.63635]]],[[[-79.29282,43.66702],[-79.29217,43.66738],[-79.29284,43.66718],[-79.29282,43.66702]]],[[[-79.40447,43.63207],[-79.40473,43.63304],[-79.40459,43.63207],[-79.40447,43.63207]]],[[[-79.46362,43.63491],[-79.46027,43.63593],[-79.4638,43.63499],[-79.46362,43.63491]]],[[[-79.46703,43.6335],[-79.4639,43.63482],[-79.46723,43.63356],[-79.46703,43.6335]]],[[[-79.45035,43.6361],[-79.45444,43.63645],[-79.45035,43.63598],[-79.45035,43.6361]]],[[[-79.4087,43.63112],[-79.40513,43.63171],[-79.40883,43.63115],[-79.4087,43.63112]]],[[[-79.44611,43.63514],[-79.44775,43.63554],[-79.44322,43.63395],[-79.44611,43.63514]]],[[[-79.33318,43.62633],[-79.33362,43.62608],[-79.33272,43.62614],[-79.33318,43.62633]]],[[[-79.32754,43.63407],[-79.32886,43.63351],[-79.3281,43.63355],[-79.32754,43.63407]]],[[[-79.37638,43.61402],[-79.3718,43.61619],[-79.37569,43.61442],[-79.37638,43.61402]],[[-79.43626,43.63099],[-79.43782,43.63161],[-79.42733,43.62882],[-79.43626,43.63099]]],[[[-79.38564,43.61591],[-79.38614,43.61535],[-79.38544,43.61491],[-79.38564,43.61591]]],[[[-79.37205,43.61949],[-79.37423,43.61953],[-79.37197,43.61912],[-79.37205,43.61949]]],[[[-79.38464,43.61971],[-79.38577,43.6198],[-79.38527,43.61931],[-79.38464,43.61971]]],[[[-79.36506,43.62355],[-79.36641,43.62359],[-79.36608,43.62291],[-79.36506,43.62355]]],[[[-79.37823,43.61865],[-79.3798,43.6188],[-79.37846,43.61726],[-79.37823,43.61865]]],[[[-79.36915,43.62404],[-79.3713,43.62365],[-79.36742,43.62303],[-79.36915,43.62404]]],[[[-79.41462,43.6296],[-79.41662,43.62862],[-79.41468,43.62807],[-79.41462,43.6296]],[[-79.36627,43.62287],[-79.36803,43.624],[-79.36428,43.62301],[-79.36627,43.62287]]],[[[-79.36317,43.62477],[-79.36579,43.62398],[-79.36387,43.62318],[-79.36317,43.62477]]],[[[-79.36767,43.62262],[-79.37166,43.62179],[-79.36667,43.62178],[-79.36767,43.62262]]],[[[-79.22806,43.71177],[-79.23184,43.70847],[-79.2295,43.7077],[-79.22806,43.71177]]],[[[-79.37335,43.62369],[-79.37741,43.6225],[-79.37217,43.62163],[-79.37335,43.62369]]],[[[-79.35792,43.63005],[-79.36288,43.62514],[-79.35918,43.62621],[-79.35792,43.63005]]],[[[-79.38572,43.62691],[-79.38695,43.62256],[-79.38316,43.62087],[-79.38572,43.62691]]],[[[-79.38263,43.62562],[-79.38239,43.62103],[-79.37045,43.61948],[-79.38263,43.62562]]],[[[-79.33903,43.62931],[-79.33704,43.62302],[-79.34511,43.62172],[-79.34364,43.61276],[-79.32981,43.62241],[-79.33903,43.62931]]],[[[-79.35203,43.6333],[-79.37145,43.61862],[-79.37982,43.61619],[-79.38939,43.62085],[-79.38337,43.61351],[-79.38948,43.61444],[-79.3889,43.63275],[-79.40494,43.62784],[-79.38954,43.61213],[-79.38306,43.61211],[-79.34982,43.62905],[-79.35203,43.6333]]],[[[-79.15203,43.8144],[-79.17025,43.85547],[-79.63931,43.74985],[-79.58877,43.66462],[-79.60886,43.64644],[-79.58836,43.64245],[-79.58525,43.62873],[-79.56399,43.6279],[-79.56736,43.60951],[-79.54889,43.59514],[-79.54387,43.5814],[-79.53792,43.57921],[-79.54341,43.58135],[-79.53703,43.58814],[-79.51559,43.59085],[-79.50935,43.58724],[-79.51068,43.59366],[-79.4926,43.60216],[-79.48431,43.61799],[-79.47885,43.61718],[-79.48418,43.61321],[-79.47892,43.61207],[-79.47493,43.61776],[-79.48136,43.62159],[-79.47484,43.61875],[-79.46924,43.62254],[-79.47889,43.62212],[-79.46031,43.63674],[-79.42724,43.62973],[-79.41038,43.63109],[-79.42722,43.62901],[-79.41504,43.62643],[-79.41861,43.62679],[-79.41073,43.62755],[-79.4086,43.63306],[-79.40161,43.63419],[-79.40232,43.631],[-79.39694,43.63644],[-79.3796,43.63808],[-79.36074,43.6472],[-79.35444,43.6475],[-79.35811,43.64403],[-79.35248,43.64394],[-79.35406,43.6391],[-79.33503,43.65233],[-79.32536,43.65362],[-79.35333,43.63815],[-79.34703,43.6332],[-79.33458,43.64023],[-79.32956,43.64906],[-79.32537,43.64565],[-79.33094,43.63869],[-79.32471,43.64009],[-79.32431,43.64523],[-79.32299,43.63822],[-79.32667,43.63182],[-79.3365,43.62932],[-79.32894,43.63097],[-79.33091,43.62612],[-79.32305,43.63345],[-79.32386,43.62646],[-79.32728,43.62712],[-79.32274,43.6262],[-79.31967,43.65086],[-79.31309,43.65797],[-79.3179,43.66107],[-79.30691,43.65727],[-79.31121,43.65586],[-79.3085,43.65417],[-79.30387,43.66422],[-79.27756,43.67193],[-79.25568,43.69503],[-79.23747,43.70505],[-79.23573,43.70121],[-79.23376,43.70691],[-79.22896,43.70469],[-79.23306,43.70928],[-79.22669,43.7124],[-79.22603,43.70727],[-79.22367,43.71801],[-79.20762,43.73333],[-79.17926,43.75208],[-79.15263,43.75935],[-79.11534,43.79473],[-79.13531,43.80074],[-79.13402,43.80692],[-79.15203,43.8144]]]]},"properties":{"CSDUID":"3520005","DGUID":"2021A00053520005","CSDNAME":"Toronto","PRUID":"35"}},{"type":"Feature","geometry":{"type":"Polygon","coordinates":[[[-79.62835,43.7329],[-79.63937,43.73733],[-79.67388,43.70628],[-79.69083,43.6687],[-79.7085,43.65425],[-79.73541,43.64195],[-79.76093,43.61469],[-79.77815,43.60958],[-79.81026,43.58852],[-79.69748,43.50833],[-79.68183,43.52279],[-79.62509,43.48113],[-79.61604,43.48796],[-79.60963,43.48386],[-79.61567,43.48892],[-79.61248,43.49412],[-79.60661,43.49652],[-79.60261,43.49278],[-79.60643,43.49656],[-79.59796,43.53645],[-79.57647,43.54811],[-79.58225,43.552],[-79.57618,43.54951],[-79.58081,43.55315],[-79.5651,43.56472],[-79.56054,43.5629],[-79.56126,43.56746],[-79.55699,43.56286],[-79.55907,43.56844],[-79.55428,43.57139],[-79.55567,43.56303],[-79.54796,43.57139],[-79.54195,43.56785],[-79.552,43.56977],[-79.54838,43.572],[-79.54084,43.56861],[-79.54601,43.57208],[-79.54264,43.57521],[-79.5487,43.59489],[-79.5674,43.60959],[-79.56389,43.6278],[-79.58525,43.62873],[-79.58836,43.64245],[-79.60886,43.64644],[-79.58877,43.66462],[-79.62835,43.7329]]]},"properties":{"CSDUID":"3521005","DGUID":"2021A00053521005","CSDNAME":"Mississauga","PRUID":"35"}},{"type":"Feature","geometry":{"type":"Polygon","coordinates":[[[-79.63049,43.73626],[-79.69723,43.84736],[-79.81967,43.73874],[-79.82549,43.74247],[-79.83648,43.73367],[-79.82992,43.72914],[-79.88887,43.6749],[-79.79036,43.60224],[-79.76093,43.61469],[-79.73663,43.64102],[-79.7085,43.65425],[-79.69083,43.6687],[-79.67388,43.70628],[-79.63937,43.73733],[-79.63049,43.73626]]]},"properties":{"CSDUID":"3521010","DGUID":"2021A00053521010","CSDNAME":"Brampton","PRUID":"35"}},{"type":"Feature","geometry":{"type":"Polygon","coordinates":[[[-79.66861,43.51321],[-79.68183,43.52279],[-79.69748,43.50833],[-79.72692,43.52654],[-79.77337,43.48499],[-79.78644,43.48661],[-79.80815,43.46678],[-79.79522,43.44925],[-79.81096,43.43477],[-79.72449,43.37174],[-79.71517,43.37325],[-79.71778,43.37559],[-79.70918,43.39344],[-79.69164,43.40401],[-79.68351,43.42484],[-79.62509,43.48113],[-79.66861,43.51321]]]},"properties":{"CSDUID":"3524001","DGUID":"2021A00053524001","CSDNAME":"Oakville","PRUID":"35"}}]}